COMMENT,ORIGINATOR,NORAD_CAT_ID,OBJECT_NAME,OBJECT_TYPE,CLASSIFICATION_TYPE,INTLDES,EPOCH,EPOCH_MICROSECONDS,MEAN_MOTION,ECCENTRICITY,INCLINATION,RA_OF_ASC_NODE,ARG_OF_PERICENTER,MEAN_ANOMALY,EPHEMERIS_TYPE,ELEMENT_SET_NO,REV_AT_EPOCH,BSTAR,MEAN_MOTION_DOT,MEAN_MOTION_DDOT,FILE,TLE_LINE0,TLE_LINE1,TLE_LINE2,OBJECT_ID,OBJECT_NUMBER,SEMIMAJOR_AXIS,PERIOD,APOGEE,PERIGEE,DECAYED
"GENERATED VIA SPACETRACK.ORG API","18 SPCS","48896","SPACEBEE-105","PAYLOAD","U","21059T","2023-05-05 21:28:17","673600","15.29544186","0.0006397","97.5896","261.8064","61.1929","298.9952","0","999","10292","0.0010899","0.00031246","0","3901993","0 SPACEBEE-105","1 48896U 21059T   23125.89464900  .00031246  00000-0  10899-2 0  9990","2 48896  97.5896 261.8064 0006397  61.1929 298.9952 15.29544186102924","2021-059T","48896","6855.311","94.146","481.561","472.791","0"
"GENERATED VIA SPACETRACK.ORG API","18 SPCS","48896","SPACEBEE-105","PAYLOAD","U","21059T","2023-05-06 08:27:43","814880","15.29578327","0.000633","97.5897","262.2739","59.3261","300.8602","0","999","10299","0.0013196","0.0003792","0","3902298","0 SPACEBEE-105","1 48896U 21059T   23126.35259045  .00037920  00000-0  13196-2 0  9992","2 48896  97.5897 262.2739 0006330  59.3261 300.8602 15.29578327102990","2021-059T","48896","6855.209","94.144","481.413","472.735","0"
"GENERATED VIA SPACETRACK.ORG API","18 SPCS","48896","SPACEBEE-105","PAYLOAD","U","21059T","2023-05-06 21:01:21","31968","15.29624458","0.000628","97.5898","262.8081","57.3641","302.8204","0","999","10307","0.0014866","0.00042817","0","3902467","0 SPACEBEE-105","1 48896U 21059T   23126.87593787  .00042817  00000-0  14866-2 0  9999","2 48896  97.5898 262.8081 0006280  57.3641 302.8204 15.29624458103078","2021-059T","48896","6855.071","94.141","481.241","472.631","0"
"GENERATED VIA SPACETRACK.ORG API","18 SPCS","48896","SPACEBEE-105","PAYLOAD","U","21059T","2023-05-07 08:00:45","119520","15.2965425","0.0006206","97.5899","263.2754","55.4209","304.7616","0","999","10314","0.001201","0.00034569","0","3903215","0 SPACEBEE-105","1 48896U 21059T   23127.33385555  .00034569  00000-0  12010-2 0  9997","2 48896  97.5899 263.2754 0006206  55.4209 304.7616 15.29654250103147","2021-059T","48896","6854.982","94.139","481.101","472.593","0"
"GENERATED VIA SPACETRACK.ORG API","18 SPCS","48896","SPACEBEE-105","PAYLOAD","U","21059T","2023-05-07 20:34:20","148096","15.29696607","0.0006186","97.5901","263.8097","53.4449","306.736","0","999","10322","0.0013517","0.0003899","0","3903280","0 SPACEBEE-105","1 48896U 21059T   23127.85717764  .00038990  00000-0  13517-2 0  9990","2 48896  97.5901 263.8097 0006186  53.4449 306.7360 15.29696607103227","2021-059T","48896","6854.856","94.136","480.961","472.480","0"
"GENERATED VIA SPACETRACK.ORG API","18 SPCS","48896","SPACEBEE-105","PAYLOAD","U","21059T","2023-05-07 22:08:31","922016","15.29702348","0.0006163","97.5902","263.8765","53.3741","306.8065","0","999","10323","0.0013803","0.00039828","0","3903413","0 SPACEBEE-105","1 48896U 21059T   23127.92259169  .00039828  00000-0  13803-2 0  9997","2 48896  97.5902 263.8765 0006163  53.3741 306.8065 15.29702348103233","2021-059T","48896","6854.838","94.136","480.928","472.479","0"
"GENERATED VIA SPACETRACK.ORG API","18 SPCS","48896","SPACEBEE-105","PAYLOAD","U","21059T","2023-05-08 21:41:26","753568","15.29776097","0.0006222","97.5907","264.8783","49.5889","310.5893","0","999","10338","0.0013834","0.0004001","0","3904305","0 SPACEBEE-105","1 48896U 21059T   23128.90378187  .00040010  00000-0  13834-2 0  9997","2 48896  97.5907 264.8783 0006222  49.5889 310.5893 15.29776097103384","2021-059T","48896","6854.618","94.131","480.748","472.218","0"
"GENERATED VIA SPACETRACK.ORG API","18 SPCS","48896","SPACEBEE-105","PAYLOAD","U","21059T","2023-05-08 23:15:38","274336","15.29779915","0.0006222","97.5907","264.9451","49.42","310.7581","0","999","10339","0.0013675","0.00039551","0","3904553","0 SPACEBEE-105","1 48896U 21059T   23128.96919299  .00039551  00000-0  13675-2 0  9999","2 48896  97.5907 264.9451 0006222  49.4200 310.7581 15.29779915103392","2021-059T","48896","6854.607","94.131","480.737","472.207","0"
"GENERATED VIA SPACETRACK.ORG API","18 SPCS","48896","SPACEBEE-105","PAYLOAD","U","21059T","2023-05-10 08:13:35","690016","15.29885387","0.00061","97.5907","266.3478","43.6109","316.5612","0","999","10360","0.0014443","0.00041925","0","3904555","0 SPACEBEE-105","1 48896U 21059T   23130.34277419  .00041925  00000-0  14443-2 0  9997","2 48896  97.5907 266.3478 0006100  43.6109 316.5612 15.29885387103600","2021-059T","48896","6854.292","94.125","480.338","471.975","0"
"GENERATED VIA SPACETRACK.ORG API","18 SPCS","48896","SPACEBEE-105","PAYLOAD","U","21059T","2023-05-10 14:30:20","12256","15.29904758","0.000607","97.5905","266.6152","42.734","317.4371","0","999","10364","0.0014599","0.00042406","0","3904830","0 SPACEBEE-105","1 48896U 21059T   23130.60439829  .00042406  00000-0  14599-2 0  9998","2 48896  97.5905 266.6152 0006070  42.7340 317.4371 15.29904758103643","2021-059T","48896","6854.234","94.124","480.259","471.938","0"
"GENERATED VIA SPACETRACK.ORG API","18 SPCS","48896","SPACEBEE-105","PAYLOAD","U","21059T","2023-05-11 07:46:20","105184","15.2996207","0.0006078","97.5904","267.3502","40.0749","320.0938","0","999","10375","0.0012814","0.00037252","0","3905210","0 SPACEBEE-105","1 48896U 21059T   23131.32384381  .00037252  00000-0  12814-2 0  9991","2 48896  97.5904 267.3502 0006078  40.0749 320.0938 15.29962070103753","2021-059T","48896","6854.063","94.120","480.093","471.762","0"
"GENERATED VIA SPACETRACK.ORG API","18 SPCS","48896","SPACEBEE-105","PAYLOAD","U","21059T","2023-05-11 07:46:20","105184","15.2996207","0.0006078","97.5904","267.3502","40.0749","320.0938","0","999","10375","0.0012814","0.00037252","0","3905379","0 SPACEBEE-105","1 48896U 21059T   23131.32384381  .00037252  00000-0  12814-2 0  9991","2 48896  97.5904 267.3502 0006078  40.0749 320.0938 15.29962070103753","2021-059T","48896","6854.063","94.120","480.093","471.762","0"
"GENERATED VIA SPACETRACK.ORG API","18 SPCS","48896","SPACEBEE-105","PAYLOAD","U","21059T","2023-05-12 02:36:28","623168","15.30021596","0.0006086","97.5904","268.1521","37.6285","322.5379","0","999","10387","0.0013458","0.0003921","0","3905921","0 SPACEBEE-105","1 48896U 21059T   23132.10866462  .00039210  00000-0  13458-2 0  9994","2 48896  97.5904 268.1521 0006086  37.6285 322.5379 15.30021596103879","2021-059T","48896","6853.885","94.116","479.921","471.579","0"
"GENERATED VIA SPACETRACK.ORG API","18 SPCS","48896","SPACEBEE-105","PAYLOAD","U","21059T","2023-05-12 19:52:24","114432","15.30080238","0.0006043","97.5902","268.887","34.8778","325.2857","0","999","10398","0.001475","0.00043081","0","3906081","0 SPACEBEE-105","1 48896U 21059T   23132.82805688  .00043081  00000-0  14750-2 0  9993","2 48896  97.5902 268.8870 0006043  34.8778 325.2857 15.30080238103981","2021-059T","48896","6853.710","94.113","479.716","471.433","0"
"GENERATED VIA SPACETRACK.ORG API","18 SPCS","48896","SPACEBEE-105","PAYLOAD","U","21059T","2023-05-12 19:52:24","114432","15.30080238","0.0006043","97.5902","268.887","34.8778","325.2857","0","999","10398","0.001475","0.00043081","0","3906381","0 SPACEBEE-105","1 48896U 21059T   23132.82805688  .00043081  00000-0  14750-2 0  9993","2 48896  97.5902 268.8870 0006043  34.8778 325.2857 15.30080238103981","2021-059T","48896","6853.710","94.113","479.716","471.433","0"
"GENERATED VIA SPACETRACK.ORG API","18 SPCS","48896","SPACEBEE-105","PAYLOAD","U","21059T","2023-05-13 09:59:56","979744","15.30118889","0.0005963","97.5899","269.4884","32.3785","327.782","0","999","10407","0.0012279","0.00035859","0","3906759","0 SPACEBEE-105","1 48896U 21059T   23133.41663171  .00035859  00000-0  12279-2 0  9996","2 48896  97.5899 269.4884 0005963  32.3785 327.7820 15.30118889104071","2021-059T","48896","6853.594","94.110","479.546","471.372","0"
"GENERATED VIA SPACETRACK.ORG API","18 SPCS","48896","SPACEBEE-105","PAYLOAD","U","21059T","2023-05-13 20:59:08","258496","15.30149652","0.0005931","97.59","269.9562","30.1279","330.0301","0","999","10414","0.0011198","0.00032712","0","3907148","0 SPACEBEE-105","1 48896U 21059T   23133.87440114  .00032712  00000-0  11198-2 0  9990","2 48896  97.5900 269.9562 0005931  30.1279 330.0301 15.30149652104142","2021-059T","48896","6853.502","94.108","479.432","471.303","0"
"GENERATED VIA SPACETRACK.ORG API","18 SPCS","48896","SPACEBEE-105","PAYLOAD","U","21059T","2023-05-14 14:14:58","646976","15.30198074","0.0005929","97.5899","270.6911","27.309","332.8461","0","999","10425","0.0011198","0.00032761","0","3907744","0 SPACEBEE-105","1 48896U 21059T   23134.59373434  .00032761  00000-0  11198-2 0  9994","2 48896  97.5899 270.6911 0005929  27.3090 332.8461 15.30198074104253","2021-059T","48896","6853.358","94.105","479.286","471.159","0"
"GENERATED VIA SPACETRACK.ORG API","18 SPCS","48896","SPACEBEE-105","PAYLOAD","U","21059T","2023-05-14 20:31:38","277696","15.30217241","0.0005931","97.5899","270.9585","26.3442","333.8099","0","999","10429","0.0011126","0.00032569","0","3907844","0 SPACEBEE-105","1 48896U 21059T   23134.85530414  .00032569  00000-0  11126-2 0  9993","2 48896  97.5899 270.9585 0005931  26.3442 333.8099 15.30217241104296","2021-059T","48896","6853.301","94.104","479.230","471.101","0"
"GENERATED VIA SPACETRACK.ORG API","18 SPCS","48896","SPACEBEE-105","PAYLOAD","U","21059T","2023-05-14 20:31:38","277696","15.30217241","0.0005931","97.5899","270.9585","26.3442","333.8099","0","999","10429","0.0011126","0.00032569","0","3908005","0 SPACEBEE-105","1 48896U 21059T   23134.85530414  .00032569  00000-0  11126-2 0  9993","2 48896  97.5899 270.9585 0005931  26.3442 333.8099 15.30217241104296","2021-059T","48896","6853.301","94.104","479.230","471.101","0"
